[{"OBJECT_NAME":"STARLINK-30168","OBJECT_ID":"2023-113U","EPOCH":"2026-03-09T22:00:01.999584","MEAN_MOTION":15.26731228,"ECCENTRICITY":0.00014958,"INCLINATION":43.0016,"RA_OF_ASC_NODE":14.4447,"ARG_OF_PERICENTER":256.2569,"MEAN_ANOMALY":102.8203,"EPHEMERIS_TYPE":0,"CLASSIFICATION_TYPE":"U","NORAD_CAT_ID":57513,"ELEMENT_SET_NO":999,"REV_AT_EPOCH":563,"BSTAR":0.0002947252,"MEAN_MOTION_DOT":7.652e-5,"MEAN_MOTION_DDOT":0},{"OBJECT_NAME":"OBJECT M","OBJECT_ID":"2024-205M","EPOCH":"2026-03-09T22:23:47.520096","MEAN_MOTION":15.27663844,"ECCENTRICITY":0.00036602,"INCLINATION":97.3915,"RA_OF_ASC_NODE":144.193,"ARG_OF_PERICENTER":310.2554,"MEAN_ANOMALY":49.8364,"EPHEMERIS_TYPE":0,"CLASSIFICATION_TYPE":"U","NORAD_CAT_ID":61905,"ELEMENT_SET_NO":999,"REV_AT_EPOCH":7334,"BSTAR":0.00036391974,"MEAN_MOTION_DOT":9.771e-5,"MEAN_MOTION_DDOT":0}]
